QIANFAN-81              
1 63167U 25046J   25331.15790711  .00000126  00000+0  17562-3 0  9997
2 63167  88.9753 321.4861 0015156 158.9179 201.2600 13.50997676 45382
QIANFAN-82              
1 63168U 25046K   25331.04352419  .00000088  00000+0  11776-3 0  9993
2 63168  88.9753 321.5418 0013063 166.0257 194.1258 13.50977167 45353
QIANFAN-83              
1 63169U 25046L   25331.12385058  .00000074  00000+0  79539-4 0  9995
2 63169  88.9754 321.3405 0014793 152.8546 207.3388 13.61970189 45477
QIANFAN-84              
1 63170U 25046M   25331.14552771 -.00000026  00000+0 -59509-4 0  9991
2 63170  88.9747 321.6641 0016114 163.8723 196.2944 13.50985427 45297
QIANFAN-85              
1 63171U 25046N   25331.14215794  .00000094  00000+0  12706-3 0  9993
2 63171  88.9753 321.5361 0013440 164.8700 195.2856 13.50982233 45369
QIANFAN-86              
1 63172U 25046P   25331.15048933  .00000113  00000+0  15566-3 0  9993
2 63172  88.9755 321.3970 0011219 167.5405 192.6025 13.50979028 45446
QIANFAN-87              
1 63173U 25046Q   25331.12179825  .00000049  00000+0  57214-4 0  9991
2 63173  88.9751 321.5123 0012009 163.3228 196.8320 13.50971230 45373
QIANFAN-88              
1 63174U 25046R   25331.13819572  .00000083  00000+0  10982-3 0  9991
2 63174  88.9754 321.4647 0012151 171.3525 188.7838 13.50976545 45406
